[
    {
        "Altitude(m)": 576748.9740050834,
        "Argument of Periapsis(deg)": -0.03013754771062987,
        "Eccentricity": 0.0,
        "Inclination(deg)": 97.0,
        "Latitude(deg)": 80.04572432134226,
        "Longitude(deg)": -179.0458579976858,
        "Mean Anomaly(deg)": 97.19139102558331,
        "RAAN(deg)": 60.00792940482467,
        "Satellite Name": "Starlink Shell 3 1708",
        "Satellite Number": 1708,
        "Semi-Major Axis(m)": 6938478.169268562,
        "Time(s)": 760
    },
    {
        "Altitude(m)": 576709.1924566639,
        "Argument of Periapsis(deg)": -0.030534094391032898,
        "Eccentricity": 0.0,
        "Inclination(deg)": 97.0,
        "Latitude(deg)": 79.59277147417637,
        "Longitude(deg)": 178.49494164386252,
        "Mean Anomaly(deg)": 97.81686722328834,
        "RAAN(deg)": 60.008033739098686,
        "Satellite Name": "Starlink Shell 3 1708",
        "Satellite Number": 1708,
        "Semi-Major Axis(m)": 6938478.169268562,
        "Time(s)": 770
    },
    {
        "Altitude(m)": 576666.1789381665,
        "Argument of Periapsis(deg)": -0.030930641071435925,
        "Eccentricity": 0.0,
        "Inclination(deg)": 97.0,
        "Latitude(deg)": 79.12319021029026,
        "Longitude(deg)": 176.23865424824365,
        "Mean Anomaly(deg)": 98.4423434209934,
        "RAAN(deg)": 60.00813807337269,
        "Satellite Name": "Starlink Shell 3 1708",
        "Satellite Number": 1708,
        "Semi-Major Axis(m)": 6938478.169268562,
        "Time(s)": 780
    },
    {
        "Altitude(m)": 576619.957767429,
        "Argument of Periapsis(deg)": -0.031327187751838945,
        "Eccentricity": 0.0,
        "Inclination(deg)": 97.0,
        "Latitude(deg)": 78.63903775377129,
        "Longitude(deg)": 174.1661422921573,
        "Mean Anomaly(deg)": 99.06781961869844,
        "RAAN(deg)": 60.008242407646705,
        "Satellite Name": "Starlink Shell 3 1708",
        "Satellite Number": 1708,
        "Semi-Major Axis(m)": 6938478.169268562,
        "Time(s)": 790
    },
    {
        "Altitude(m)": 576570.5550844482,
        "Argument of Periapsis(deg)": -0.031723734432241975,
        "Eccentricity": 0.0,
        "Inclination(deg)": 97.0,
        "Latitude(deg)": 78.14209415660116,
        "Longitude(deg)": 172.2595297206459,
        "Mean Anomaly(deg)": 99.6932958164035,
        "RAAN(deg)": 60.008346741920704,
        "Satellite Name": "Starlink Shell 3 1708",
        "Satellite Number": 1708,
        "Semi-Major Axis(m)": 6938478.169268562,
        "Time(s)": 800
    },
    {
        "Altitude(m)": 576517.9988390887,
        "Argument of Periapsis(deg)": -0.032120281112645,
        "Eccentricity": 0.0,
        "Inclination(deg)": 97.0,
        "Latitude(deg)": 77.63389666771583,
        "Longitude(deg)": 170.50239659091994,
        "Mean Anomaly(deg)": 100.3187720141085,
        "RAAN(deg)": 60.00845107619472,
        "Satellite Name": "Starlink Shell 3 1708",
        "Satellite Number": 1708,
        "Semi-Major Axis(m)": 6938478.169268562,
        "Time(s)": 810
    },
    {
        "Altitude(m)": 576462.3187779526,
        "Argument of Periapsis(deg)": -0.03251682779304802,
        "Eccentricity": 0.0,
        "Inclination(deg)": 97.0,
        "Latitude(deg)": 77.11577207178671,
        "Longitude(deg)": 168.87983528680306,
        "Mean Anomaly(deg)": 100.94424821181356,
        "RAAN(deg)": 60.00855541046872,
        "Satellite Name": "Starlink Shell 3 1708",
        "Satellite Number": 1708,
        "Semi-Major Axis(m)": 6938478.169268562,
        "Time(s)": 820
    },
    {
        "Altitude(m)": 576403.5464303612,
        "Argument of Periapsis(deg)": -0.032913374473451044,
        "Eccentricity": 0.0,
        "Inclination(deg)": 97.0,
        "Latitude(deg)": 76.58886598772622,
        "Longitude(deg)": 167.37841847028957,
        "Mean Anomaly(deg)": 101.56972440951864,
        "RAAN(deg)": 60.008659744742744,
        "Satellite Name": "Starlink Shell 3 1708",
        "Satellite Number": 1708,
        "Semi-Major Axis(m)": 6938478.169268562,
        "Time(s)": 830
    },
    {
        "Altitude(m)": 576341.7150935414,
        "Argument of Periapsis(deg)": -0.03330992115385407,
        "Eccentricity": 0.0,
        "Inclination(deg)": 97.0,
        "Latitude(deg)": 76.05416876755832,
        "Longitude(deg)": 165.98611795266484,
        "Mean Anomaly(deg)": 102.19520060722368,
        "RAAN(deg)": 60.00876407901676,
        "Satellite Name": "Starlink Shell 3 1708",
        "Satellite Number": 1708,
        "Semi-Major Axis(m)": 6938478.169268562,
        "Time(s)": 840
    },
    {
        "Altitude(m)": 576276.8598169156,
        "Argument of Periapsis(deg)": -0.0337064678342571,
        "Eccentricity": 0.0,
        "Inclination(deg)": 97.0,
        "Latitude(deg)": 75.51253801777183,
        "Longitude(deg)": 164.692197296316,
        "Mean Anomaly(deg)": 102.8206768049287,
        "RAAN(deg)": 60.00886841329077,
        "Satellite Name": "Starlink Shell 3 1708",
        "Satellite Number": 1708,
        "Semi-Major Axis(m)": 6938478.169268562,
        "Time(s)": 850
    },
    {
        "Altitude(m)": 576209.0173855964,
        "Argument of Periapsis(deg)": -0.03410301451466012,
        "Eccentricity": 0.0,
        "Inclination(deg)": 97.0,
        "Latitude(deg)": 74.96471796986931,
        "Longitude(deg)": 163.48709222406535,
        "Mean Anomaly(deg)": 103.44615300263376,
        "RAAN(deg)": 60.008972747564755,
        "Satellite Name": "Starlink Shell 3 1708",
        "Satellite Number": 1708,
        "Semi-Major Axis(m)": 6938478.169268562,
        "Time(s)": 860
    },
    {
        "Altitude(m)": 576138.226303036,
        "Argument of Periapsis(deg)": -0.034499561195063144,
        "Eccentricity": 0.0,
        "Inclination(deg)": 97.0,
        "Latitude(deg)": 74.41135602081295,
        "Longitude(deg)": 162.36229282473042,
        "Mean Anomaly(deg)": 104.0716292003388,
        "RAAN(deg)": 60.009077081838775,
        "Satellite Name": "Starlink Shell 3 1708",
        "Satellite Number": 1708,
        "Semi-Major Axis(m)": 6938478.169268562,
        "Time(s)": 870
    },
    {
        "Altitude(m)": 576064.5267728491,
        "Argument of Periapsis(deg)": -0.03489610787546617,
        "Eccentricity": 0.0,
        "Inclination(deg)": 97.0,
        "Latitude(deg)": 73.85301679233636,
        "Longitude(deg)": 161.31022826067925,
        "Mean Anomaly(deg)": 104.69710539804383,
        "RAAN(deg)": 60.00918141611279,
        "Satellite Name": "Starlink Shell 3 1708",
        "Satellite Number": 1708,
        "Semi-Major Axis(m)": 6938478.169268562,
        "Time(s)": 880
    },
    {
        "Altitude(m)": 575987.9606798174,
        "Argument of Periapsis(deg)": -0.0352926545558692,
        "Eccentricity": 0.0,
        "Inclination(deg)": 97.0,
        "Latitude(deg)": 73.29019404961817,
        "Longitude(deg)": 160.32416127298833,
        "Mean Anomaly(deg)": 105.32258159574887,
        "RAAN(deg)": 60.009285750386795,
        "Satellite Name": "Starlink Shell 3 1708",
        "Satellite Number": 1708,
        "Semi-Major Axis(m)": 6938478.169268562,
        "Time(s)": 890
    },
    {
        "Altitude(m)": 575908.5715701025,
        "Argument of Periapsis(deg)": -0.035689201236272214,
        "Eccentricity": 0.0,
        "Inclination(deg)": 97.0,
        "Latitude(deg)": 72.72332079272635,
        "Longitude(deg)": 159.39809219883986,
        "Mean Anomaly(deg)": 105.94805779345393,
        "RAAN(deg)": 60.00939008466081,
        "Satellite Name": "Starlink Shell 3 1708",
        "Satellite Number": 1708,
        "Semi-Major Axis(m)": 6938478.169268562,
        "Time(s)": 900
    },
    {
        "Altitude(m)": 575826.4046306321,
        "Argument of Periapsis(deg)": -0.036085747916675244,
        "Eccentricity": 0.0,
        "Inclination(deg)": 97.0,
        "Latitude(deg)": 72.15277779932684,
        "Longitude(deg)": 158.52667133455267,
        "Mean Anomaly(deg)": 106.573533991159,
        "RAAN(deg)": 60.00949441893482,
        "Satellite Name": "Starlink Shell 3 1708",
        "Satellite Number": 1708,
        "Semi-Major Axis(m)": 6938478.169268562,
        "Time(s)": 910
    },
    {
        "Altitude(m)": 575741.5066677212,
        "Argument of Periapsis(deg)": -0.03648229459707827,
        "Eccentricity": 0.0,
        "Inclination(deg)": 97.0,
        "Latitude(deg)": 71.57890086060125,
        "Longitude(deg)": 157.7051223964518,
        "Mean Anomaly(deg)": 107.199010188864,
        "RAAN(deg)": 60.00959875320882,
        "Satellite Name": "Starlink Shell 3 1708",
        "Satellite Number": 1708,
        "Semi-Major Axis(m)": 6938478.169268562,
        "Time(s)": 920
    },
    {
        "Altitude(m)": 575653.9260848641,
        "Argument of Periapsis(deg)": -0.0368788412774813,
        "Eccentricity": 0.0,
        "Inclination(deg)": 97.0,
        "Latitude(deg)": 71.00198691746314,
        "Longitude(deg)": 156.92917495216722,
        "Mean Anomaly(deg)": 107.82448638656905,
        "RAAN(deg)": 60.009703087482826,
        "Satellite Name": "Starlink Shell 3 1708",
        "Satellite Number": 1708,
        "Semi-Major Axis(m)": 6938478.169268562,
        "Time(s)": 930
    },
    {
        "Altitude(m)": 575563.7128598017,
        "Argument of Periapsis(deg)": -0.037275387957884314,
        "Eccentricity": 0.0,
        "Inclination(deg)": 97.0,
        "Latitude(deg)": 70.42229927256237,
        "Longitude(deg)": 156.19500353096456,
        "Mean Anomaly(deg)": 108.4499625842741,
        "RAAN(deg)": 60.00980742175684,
        "Satellite Name": "Starlink Shell 3 1708",
        "Satellite Number": 1708,
        "Semi-Major Axis(m)": 6938478.169268562,
        "Time(s)": 940
    }
]